[
    {
        "Altitude(m)": 622205.8379646973,
        "Argument of Periapsis(deg)": 0.0,
        "Eccentricity": 0.0,
        "Inclination(deg)": 60.0,
        "Latitude(deg)": -52.162353923494145,
        "Longitude(deg)": 137.70032171859478,
        "Mean Anomaly(deg)": 245.4545,
        "RAAN(deg)": 10.0,
        "Satellite Name": "Test1 59",
        "Satellite Number": 59,
        "Semi-Major Axis(m)": 6980739.136638005,
        "Time(s)": 0
    },
    {
        "Altitude(m)": 622344.7448840438,
        "Argument of Periapsis(deg)": 0.00010418945913296404,
        "Eccentricity": 0.0,
        "Inclination(deg)": 60.0,
        "Latitude(deg)": -52.51993430528661,
        "Longitude(deg)": 138.4815317040235,
        "Mean Anomaly(deg)": 246.07460614546184,
        "RAAN(deg)": 9.999579950860259,
        "Satellite Name": "Test1 59",
        "Satellite Number": 59,
        "Semi-Major Axis(m)": 6980739.136638005,
        "Time(s)": 10
    }
]